{
  "type": "FeatureCollection",
  "features": [
    {
      "type": "Feature",
      "properties": {
        "id": "S-01",
        "name": "Downstream community A (sample)",
        "local_body": "Demo local jurisdiction",
        "demo": true,
        "segment_id": "OSM-164803758-0"
      },
      "geometry": {
        "type": "Point",
        "coordinates": [
          76.36634502974889,
          10.11206823916684
        ]
      }
    },
    {
      "type": "Feature",
      "properties": {
        "id": "S-02",
        "name": "Downstream community B (sample)",
        "local_body": "Demo local jurisdiction",
        "demo": true,
        "segment_id": "OSM-164803758-20"
      },
      "geometry": {
        "type": "Point",
        "coordinates": [
          76.33801357817545,
          10.132186333138762
        ]
      }
    }
  ]
}